[{"OBJECT_NAME":"OBJECT J","OBJECT_ID":"2023-085J","EPOCH":"2026-03-09T22:47:59.920512","MEAN_MOTION":15.31507187,"ECCENTRICITY":0.00067028,"INCLINATION":97.4828,"RA_OF_ASC_NODE":180.1819,"ARG_OF_PERICENTER":41.7877,"MEAN_ANOMALY":318.3875,"EPHEMERIS_TYPE":0,"CLASSIFICATION_TYPE":"U","NORAD_CAT_ID":57012,"ELEMENT_SET_NO":999,"REV_AT_EPOCH":15156,"BSTAR":0.00064525349,"MEAN_MOTION_DOT":0.00019595,"MEAN_MOTION_DDOT":0},{"OBJECT_NAME":"STARLINK-35290","OBJECT_ID":"2025-221Z","EPOCH":"2026-03-09T10:04:00.016896","MEAN_MOTION":15.30207843,"ECCENTRICITY":0.00011631,"INCLINATION":53.1587,"RA_OF_ASC_NODE":89.4805,"ARG_OF_PERICENTER":94.7461,"MEAN_ANOMALY":265.3672,"EPHEMERIS_TYPE":0,"CLASSIFICATION_TYPE":"U","NORAD_CAT_ID":65846,"ELEMENT_SET_NO":999,"REV_AT_EPOCH":2469,"BSTAR":0.00081993679,"MEAN_MOTION_DOT":0.00024009,"MEAN_MOTION_DDOT":0}]
